{"type": "FeatureCollection", "features": [ {"type": "Feature", "properties": {"norad_id": 34400, "name": "COSMOS 2251 DEB", "group": "cosmos-2251-debris", "lat": -65.86380832590363, "lon": -141.08125676557353, "alt_km": 397.0060953211523, "timestamp": "2025-12-23T16:57:12.749014+00:00", "meta": {"OBJECT_NAME": "COSMOS 2251 DEB", "OBJECT_ID": "1993-036QR", "EPOCH": "2025-12-21T23:48:22.088448", "MEAN_MOTION": 15.57468025, "ECCENTRICITY": 0.00030633, "INCLINATION": 73.963, "RA_OF_ASC_NODE": 2.8018, "ARG_OF_PERICENTER": 231.6237, "MEAN_ANOMALY": 128.4704, "EPHEMERIS_TYPE": 0, "CLASSIFICATION_TYPE": "U", "NORAD_CAT_ID": 34400, "ELEMENT_SET_NO": 999, "REV_AT_EPOCH": 90118, "BSTAR": 0.0038028437, "MEAN_MOTION_DOT": 0.0028987, "MEAN_MOTION_DDOT": 0}, "tle": {"line1": "1 34400U 93036QR  25355.99192232  .00289870  00000+0  38028-2 0  9995", "line2": "2 34400  73.9630   2.8018 0003063 231.6237 128.4704 15.57468025901184"}}, "geometry": {"type": "Point", "coordinates": [-141.08125676557353, -65.86380832590363]}}, {"type": "Feature", "properties": {"norad_id": 34409, "name": "COSMOS 2251 DEB", "group": "cosmos-2251-debris", "lat": -70.17875449736083, "lon": 158.45154551164148, "alt_km": 715.2641584837766, "timestamp": "2025-12-23T16:57:12.749024+00:00", "meta": {"OBJECT_NAME": "COSMOS 2251 DEB", "OBJECT_ID": "1993-036RA", "EPOCH": "2025-12-21T21:12:42.172416", "MEAN_MOTION": 14.5804854, "ECCENTRICITY": 0.00802645, "INCLINATION": 74.0637, "RA_OF_ASC_NODE": 289.4706, "ARG_OF_PERICENTER": 1.4067, "MEAN_ANOMALY": 54.8119, "EPHEMERIS_TYPE": 0, "CLASSIFICATION_TYPE": "U", "NORAD_CAT_ID": 34409, "ELEMENT_SET_NO": 999, "REV_AT_EPOCH": 89326, "BSTAR": 0.00022339533, "MEAN_MOTION_DOT": 1.043e-05, "MEAN_MOTION_DDOT": 0}, "tle": {"line1": "1 34409U 93036RA  25355.88382144  .00001043  00000+0  22340-3 0  9990", "line2": "2 34409  74.0637 289.4706 0080264   1.4067  54.8119 14.58048540893268"}}, "geometry": {"type": "Point", "coordinates": [158.45154551164148, -70.17875449736083]}}, {"type": "Feature", "properties": {"norad_id": 34410, "name": "COSMOS 2251 DEB", "group": "cosmos-2251-debris", "lat": -18.831890949109912, "lon": 64.06924176072242, "alt_km": 518.6192470645055, "timestamp": "2025-12-23T16:57:12.749035+00:00", "meta": {"OBJECT_NAME": "COSMOS 2251 DEB", "OBJECT_ID": "1993-036RB", "EPOCH": "2025-12-22T16:29:32.981856", "MEAN_MOTION": 15.19799022, "ECCENTRICITY": 0.0021353, "INCLINATION": 73.7364, "RA_OF_ASC_NODE": 240.5291, "ARG_OF_PERICENTER": 80.2588, "MEAN_ANOMALY": 304.8735, "EPHEMERIS_TYPE": 0, "CLASSIFICATION_TYPE": "U", "NORAD_CAT_ID": 34410, "ELEMENT_SET_NO": 999, "REV_AT_EPOCH": 89925, "BSTAR": 0.0021826237, "MEAN_MOTION_DOT": 0.00047302, "MEAN_MOTION_DDOT": 0}, "tle": {"line1": "1 34410U 93036RB  25356.68718729  .00047302  00000+0  21826-2 0  9998", "line2": "2 34410  73.7364 240.5291 0021353  80.2588 304.8735 15.19799022899250"}}, "geometry": {"type": "Point", "coordinates": [64.06924176072242, -18.831890949109912]}}, {"type": "Feature", "properties": {"norad_id": 34412, "name": "COSMOS 2251 DEB", "group": "cosmos-2251-debris", "lat": 39.370974776331565, "lon": -42.350950272240794, "alt_km": 598.2708344811226, "timestamp": "2025-12-23T16:57:12.749046+00:00", "meta": {"OBJECT_NAME": "COSMOS 2251 DEB", "OBJECT_ID": "1993-036RD", "EPOCH": "2025-12-22T14:13:35.844672", "MEAN_MOTION": 14.4724847, "ECCENTRICITY": 0.01875767, "INCLINATION": 73.949, "RA_OF_ASC_NODE": 306.0781, "ARG_OF_PERICENTER": 38.8594, "MEAN_ANOMALY": 322.5877, "EPHEMERIS_TYPE": 0, "CLASSIFICATION_TYPE": "U", "NORAD_CAT_ID": 34412, "ELEMENT_SET_NO": 999, "REV_AT_EPOCH": 87793, "BSTAR": 0.0016240392, "MEAN_MOTION_DOT": 7.383e-05, "MEAN_MOTION_DDOT": 0}, "tle": {"line1": "1 34412U 93036RD  25356.59277598  .00007383  00000+0  16240-2 0  9993", "line2": "2 34412  73.9490 306.0781 0187576  38.8594 322.5877 14.47248470877933"}}, "geometry": {"type": "Point", "coordinates": [-42.350950272240794, 39.370974776331565]}}, {"type": "Feature", "properties": {"norad_id": 34413, "name": "COSMOS 2251 DEB", "group": "cosmos-2251-debris", "lat": -0.057762513610183724, "lon": 64.9769796375532, "alt_km": 846.4278068423582, "timestamp": "2025-12-23T16:57:12.749056+00:00", "meta": {"OBJECT_NAME": "COSMOS 2251 DEB", "OBJECT_ID": "1993-036RE", "EPOCH": "2025-12-23T03:23:11.914368", "MEAN_MOTION": 14.29172419, "ECCENTRICITY": 0.00909755, "INCLINATION": 74.0308, "RA_OF_ASC_NODE": 245.9868, "ARG_OF_PERICENTER": 320.5539, "MEAN_ANOMALY": 192.815, "EPHEMERIS_TYPE": 0, "CLASSIFICATION_TYPE": "U", "NORAD_CAT_ID": 34413, "ELEMENT_SET_NO": 999, "REV_AT_EPOCH": 87279, "BSTAR": 0.0013844496, "MEAN_MOTION_DOT": 3.65e-05, "MEAN_MOTION_DDOT": 0}, "tle": {"line1": "1 34413U 93036RE  25357.14111012  .00003650  00000+0  13844-2 0  9994", "line2": "2 34413  74.0308 245.9868 0090975 320.5539 192.8150 14.29172419872797"}}, "geometry": {"type": "Point", "coordinates": [64.9769796375532, -0.057762513610183724]}}, {"type": "Feature", "properties": {"norad_id": 34420, "name": "COSMOS 2251 DEB", "group": "cosmos-2251-debris", "lat": 17.865762248497226, "lon": 88.04237471986123, "alt_km": 741.2141747467513, "timestamp": "2025-12-23T16:57:12.749067+00:00", "meta": {"OBJECT_NAME": "COSMOS 2251 DEB", "OBJECT_ID": "1993-036RM", "EPOCH": "2025-12-22T17:02:12.753312", "MEAN_MOTION": 14.6832519, "ECCENTRICITY": 0.01061899, "INCLINATION": 74.0333, "RA_OF_ASC_NODE": 84.6741, "ARG_OF_PERICENTER": 203.4437, "MEAN_ANOMALY": 309.7796, "EPHEMERIS_TYPE": 0, "CLASSIFICATION_TYPE": "U", "NORAD_CAT_ID": 34420, "ELEMENT_SET_NO": 999, "REV_AT_EPOCH": 89916, "BSTAR": 0.00019514401, "MEAN_MOTION_DOT": 1.191e-05, "MEAN_MOTION_DDOT": 0}, "tle": {"line1": "1 34420U 93036RM  25356.70986983  .00001191  00000+0  19514-3 0  9999", "line2": "2 34420  74.0333  84.6741 0106189 203.4437 309.7796 14.68325190899166"}}, "geometry": {"type": "Point", "coordinates": [88.04237471986123, 17.865762248497226]}}, {"type": "Feature", "properties": {"norad_id": 34425, "name": "COSMOS 2251 DEB", "group": "cosmos-2251-debris", "lat": -41.558560996835986, "lon": -131.78594260766778, "alt_km": 685.557052187507, "timestamp": "2025-12-23T16:57:12.749077+00:00", "meta": {"OBJECT_NAME": "COSMOS 2251 DEB", "OBJECT_ID": "1993-036RS", "EPOCH": "2025-12-23T04:26:29.932224", "MEAN_MOTION": 14.62180876, "ECCENTRICITY": 0.00242111, "INCLINATION": 74.0191, "RA_OF_ASC_NODE": 34.4949, "ARG_OF_PERICENTER": 158.0137, "MEAN_ANOMALY": 202.2074, "EPHEMERIS_TYPE": 0, "CLASSIFICATION_TYPE": "U", "NORAD_CAT_ID": 34425, "ELEMENT_SET_NO": 999, "REV_AT_EPOCH": 88893, "BSTAR": 0.00050305245, "MEAN_MOTION_DOT": 2.513e-05, "MEAN_MOTION_DDOT": 0}, "tle": {"line1": "1 34425U 93036RS  25357.18506866  .00002513  00000+0  50305-3 0  9997", "line2": "2 34425  74.0191  34.4949 0024211 158.0137 202.2074 14.62180876888936"}}, "geometry": {"type": "Point", "coordinates": [-131.78594260766778, -41.558560996835986]}}, {"type": "Feature", "properties": {"norad_id": 34429, "name": "COSMOS 2251 DEB", "group": "cosmos-2251-debris", "lat": -71.74402748007631, "lon": 24.74056533312651, "alt_km": 433.751994481323, "timestamp": "2025-12-23T16:57:12.749087+00:00", "meta": {"OBJECT_NAME": "COSMOS 2251 DEB", "OBJECT_ID": "1993-036RW", "EPOCH": "2025-12-22T20:09:55.980864", "MEAN_MOTION": 15.4576195, "ECCENTRICITY": 0.00125011, "INCLINATION": 73.9678, "RA_OF_ASC_NODE": 145.9744, "ARG_OF_PERICENTER": 346.9165, "MEAN_ANOMALY": 135.8075, "EPHEMERIS_TYPE": 0, "CLASSIFICATION_TYPE": "U", "NORAD_CAT_ID": 34429, "ELEMENT_SET_NO": 999, "REV_AT_EPOCH": 89604, "BSTAR": 0.005332713, "MEAN_MOTION_DOT": 0.00267889, "MEAN_MOTION_DDOT": 0}, "tle": {"line1": "1 34429U 93036RW  25356.84023126  .00267889  00000+0  53327-2 0  9991", "line2": "2 34429  73.9678 145.9744 0012501 346.9165 135.8075 15.45761950896040"}}, "geometry": {"type": "Point", "coordinates": [24.74056533312651, -71.74402748007631]}}, {"type": "Feature", "properties": {"norad_id": 34430, "name": "COSMOS 2251 DEB", "group": "cosmos-2251-debris", "lat": -16.050486565588443, "lon": 107.84711934749777, "alt_km": 802.902382214349, "timestamp": "2025-12-23T16:57:12.749098+00:00", "meta": {"OBJECT_NAME": "COSMOS 2251 DEB", "OBJECT_ID": "1993-036RX", "EPOCH": "2025-12-23T04:22:02.170848", "MEAN_MOTION": 14.39662359, "ECCENTRICITY": 0.00608256, "INCLINATION": 74.0519, "RA_OF_ASC_NODE": 284.0954, "ARG_OF_PERICENTER": 351.3021, "MEAN_ANOMALY": 8.7073, "EPHEMERIS_TYPE": 0, "CLASSIFICATION_TYPE": "U", "NORAD_CAT_ID": 34430, "ELEMENT_SET_NO": 999, "REV_AT_EPOCH": 88105, "BSTAR": 0.00042441051, "MEAN_MOTION_DOT": 1.33e-05, "MEAN_MOTION_DDOT": 0}, "tle": {"line1": "1 34430U 93036RX  25357.18196957  .00001330  00000+0  42441-3 0  9997", "line2": "2 34430  74.0519 284.0954 0060825 351.3021   8.7073 14.39662359881055"}}, "geometry": {"type": "Point", "coordinates": [107.84711934749777, -16.050486565588443]}}, {"type": "Feature", "properties": {"norad_id": 34431, "name": "COSMOS 2251 DEB", "group": "cosmos-2251-debris", "lat": 28.37945774835958, "lon": 164.22227339564614, "alt_km": 809.1460449677852, "timestamp": "2025-12-23T16:57:12.749108+00:00", "meta": {"OBJECT_NAME": "COSMOS 2251 DEB", "OBJECT_ID": "1993-036RY", "EPOCH": "2025-12-22T20:38:58.327584", "MEAN_MOTION": 14.28807603, "ECCENTRICITY": 0.0067807, "INCLINATION": 74.0738, "RA_OF_ASC_NODE": 156.8796, "ARG_OF_PERICENTER": 139.8863, "MEAN_ANOMALY": 220.7322, "EPHEMERIS_TYPE": 0, "CLASSIFICATION_TYPE": "U", "NORAD_CAT_ID": 34431, "ELEMENT_SET_NO": 999, "REV_AT_EPOCH": 87287, "BSTAR": 0.00065336, "MEAN_MOTION_DOT": 1.663e-05, "MEAN_MOTION_DDOT": 0}, "tle": {"line1": "1 34431U 93036RY  25356.86039731  .00001663  00000+0  65336-3 0  9995", "line2": "2 34431  74.0738 156.8796 0067807 139.8863 220.7322 14.28807603872873"}}, "geometry": {"type": "Point", "coordinates": [164.22227339564614, 28.37945774835958]}}]}